STARLINK-35562          
1 66063U 25235F   25308.91668981 -.01851746  00000+0 -18097-1 0  9993
2 66063  53.1589 108.2630 0000951  66.7438 156.6404 15.68435961  3796
STARLINK-35542          
1 66064U 25235G   25308.91668981 -.01854582  00000+0 -18126-1 0  9998
2 66064  53.1592 108.2578 0001015  66.0461 159.2523 15.68438543  3793
STARLINK-35375          
1 66065U 25235H   25308.91668981 -.01851583  00000+0 -18096-1 0  9993
2 66065  53.1591 108.2545 0000915  66.5531 160.6640 15.68436336  3792
STARLINK-35179          
1 66066U 25235J   25308.91668981 -.01856541  00000+0 -18146-1 0  9999
2 66066  53.1590 108.2511 0000935  61.8330 167.2967 15.68441586  3790
STARLINK-35401          
1 66067U 25235K   25308.91668981 -.01853787  00000+0 -18119-1 0  9999
2 66067  53.1591 108.2466 0000943  61.1230 169.9282 15.68437322  3749
STARLINK-35422          
1 66068U 25235L   25308.91668981 -.01857103  00000+0 -18153-1 0  9994
2 66068  53.1591 108.2424 0000920  62.0421 170.9247 15.68439952  3745
STARLINK-35279          
1 66069U 25235M   25308.91668981 -.01852485  00000+0 -18104-1 0  9999
2 66069  53.1594 108.2392 0000915  62.7329 172.1499 15.68437799  3796
STARLINK-35295          
1 66070U 25235N   25308.91668981 -.01847541  00000+0 -18056-1 0  9994
2 66070  53.1589 108.2317 0000767  67.8947 170.8286 15.68431182  3795
STARLINK-35323          
1 66071U 25235P   25308.91668981 -.01853364  00000+0 -18115-1 0  9991
2 66071  53.1593 108.2346 0000932  66.2830 170.5196 15.68436995  3795
STARLINK-35299          
1 66072U 25235Q   25308.91668981 -.01856252  00000+0 -18145-1 0  9994
2 66072  53.1590 108.2265 0000953  62.6254 178.0107 15.68438480  3792
STARLINK-35274          
1 66073U 25235R   25308.91668981 -.01856144  00000+0 -18144-1 0  9994
2 66073  53.1591 108.2220 0000889  65.0680 177.4846 15.68438554  3798
STARLINK-35321          
1 66074U 25235S   25308.91668981 -.01858649  00000+0 -18168-1 0  9993
2 66074  53.1593 108.2178 0001056  70.7724 173.6934 15.68441715  3791
