CCSDS_OMM_VERS = 2.0
CREATION_DATE  = 
ORIGINATOR     = 

OBJECT_NAME    = STARLINK-35562
OBJECT_ID      = 2025-235F
CENTER_NAME    = EARTH
REF_FRAME      = TEME
TIME_SYSTEM    = UTC
MEAN_ELEMENT_THEORY = SGP/SGP4

EPOCH          = 2025-11-04T22:00:01.999584
MEAN_MOTION    = 15.68435961
ECCENTRICITY   = .0000951
INCLINATION    = 53.1589
RA_OF_ASC_NODE = 108.2630
ARG_OF_PERICENTER = 66.7438
MEAN_ANOMALY   = 156.6404

EPHEMERIS_TYPE = 0
CLASSIFICATION_TYPE = U
NORAD_CAT_ID   = 66063
ELEMENT_SET_NO = 999
REV_AT_EPOCH   = 379
BSTAR          = -.1809741E-1
MEAN_MOTION_DOT = -.1851746E-1
MEAN_MOTION_DDOT = 0

CCSDS_OMM_VERS = 2.0
CREATION_DATE  = 
ORIGINATOR     = 

OBJECT_NAME    = STARLINK-35542
OBJECT_ID      = 2025-235G
CENTER_NAME    = EARTH
REF_FRAME      = TEME
TIME_SYSTEM    = UTC
MEAN_ELEMENT_THEORY = SGP/SGP4

EPOCH          = 2025-11-04T22:00:01.999584
MEAN_MOTION    = 15.68438543
ECCENTRICITY   = .00010158
INCLINATION    = 53.1592
RA_OF_ASC_NODE = 108.2578
ARG_OF_PERICENTER = 66.0461
MEAN_ANOMALY   = 159.2523

EPHEMERIS_TYPE = 0
CLASSIFICATION_TYPE = U
NORAD_CAT_ID   = 66064
ELEMENT_SET_NO = 999
REV_AT_EPOCH   = 379
BSTAR          = -.18126151E-1
MEAN_MOTION_DOT = -.1854582E-1
MEAN_MOTION_DDOT = 0

CCSDS_OMM_VERS = 2.0
CREATION_DATE  = 
ORIGINATOR     = 

OBJECT_NAME    = STARLINK-35375
OBJECT_ID      = 2025-235H
CENTER_NAME    = EARTH
REF_FRAME      = TEME
TIME_SYSTEM    = UTC
MEAN_ELEMENT_THEORY = SGP/SGP4

EPOCH          = 2025-11-04T22:00:01.999584
MEAN_MOTION    = 15.68436336
ECCENTRICITY   = .00009158
INCLINATION    = 53.1591
RA_OF_ASC_NODE = 108.2545
ARG_OF_PERICENTER = 66.5531
MEAN_ANOMALY   = 160.6640

EPHEMERIS_TYPE = 0
CLASSIFICATION_TYPE = U
NORAD_CAT_ID   = 66065
ELEMENT_SET_NO = 999
REV_AT_EPOCH   = 379
BSTAR          = -.18095585E-1
MEAN_MOTION_DOT = -.1851583E-1
MEAN_MOTION_DDOT = 0

CCSDS_OMM_VERS = 2.0
CREATION_DATE  = 
ORIGINATOR     = 

OBJECT_NAME    = STARLINK-35179
OBJECT_ID      = 2025-235J
CENTER_NAME    = EARTH
REF_FRAME      = TEME
TIME_SYSTEM    = UTC
MEAN_ELEMENT_THEORY = SGP/SGP4

EPOCH          = 2025-11-04T22:00:01.999584
MEAN_MOTION    = 15.68441586
ECCENTRICITY   = .00009352
INCLINATION    = 53.1590
RA_OF_ASC_NODE = 108.2511
ARG_OF_PERICENTER = 61.8330
MEAN_ANOMALY   = 167.2967

EPHEMERIS_TYPE = 0
CLASSIFICATION_TYPE = U
NORAD_CAT_ID   = 66066
ELEMENT_SET_NO = 999
REV_AT_EPOCH   = 379
BSTAR          = -.18145965E-1
MEAN_MOTION_DOT = -.1856541E-1
MEAN_MOTION_DDOT = 0

CCSDS_OMM_VERS = 2.0
CREATION_DATE  = 
ORIGINATOR     = 

OBJECT_NAME    = STARLINK-35401
OBJECT_ID      = 2025-235K
CENTER_NAME    = EARTH
REF_FRAME      = TEME
TIME_SYSTEM    = UTC
MEAN_ELEMENT_THEORY = SGP/SGP4

EPOCH          = 2025-11-04T22:00:01.999584
MEAN_MOTION    = 15.68437322
ECCENTRICITY   = .0000943
INCLINATION    = 53.1591
RA_OF_ASC_NODE = 108.2466
ARG_OF_PERICENTER = 61.1230
MEAN_ANOMALY   = 169.9282

EPHEMERIS_TYPE = 0
CLASSIFICATION_TYPE = U
NORAD_CAT_ID   = 66067
ELEMENT_SET_NO = 999
REV_AT_EPOCH   = 374
BSTAR          = -.18118863E-1
MEAN_MOTION_DOT = -.1853787E-1
MEAN_MOTION_DDOT = 0

CCSDS_OMM_VERS = 2.0
CREATION_DATE  = 
ORIGINATOR     = 

OBJECT_NAME    = STARLINK-35422
OBJECT_ID      = 2025-235L
CENTER_NAME    = EARTH
REF_FRAME      = TEME
TIME_SYSTEM    = UTC
MEAN_ELEMENT_THEORY = SGP/SGP4

EPOCH          = 2025-11-04T22:00:01.999584
MEAN_MOTION    = 15.68439952
ECCENTRICITY   = .00009203
INCLINATION    = 53.1591
RA_OF_ASC_NODE = 108.2424
ARG_OF_PERICENTER = 62.0421
MEAN_ANOMALY   = 170.9247

EPHEMERIS_TYPE = 0
CLASSIFICATION_TYPE = U
NORAD_CAT_ID   = 66068
ELEMENT_SET_NO = 999
REV_AT_EPOCH   = 374
BSTAR          = -.18153473E-1
MEAN_MOTION_DOT = -.1857103E-1
MEAN_MOTION_DDOT = 0

CCSDS_OMM_VERS = 2.0
CREATION_DATE  = 
ORIGINATOR     = 

OBJECT_NAME    = STARLINK-35279
OBJECT_ID      = 2025-235M
CENTER_NAME    = EARTH
REF_FRAME      = TEME
TIME_SYSTEM    = UTC
MEAN_ELEMENT_THEORY = SGP/SGP4

EPOCH          = 2025-11-04T22:00:01.999584
MEAN_MOTION    = 15.68437799
ECCENTRICITY   = .00009158
INCLINATION    = 53.1594
RA_OF_ASC_NODE = 108.2392
ARG_OF_PERICENTER = 62.7329
MEAN_ANOMALY   = 172.1499

EPHEMERIS_TYPE = 0
CLASSIFICATION_TYPE = U
NORAD_CAT_ID   = 66069
ELEMENT_SET_NO = 999
REV_AT_EPOCH   = 379
BSTAR          = -.18104402E-1
MEAN_MOTION_DOT = -.1852485E-1
MEAN_MOTION_DDOT = 0

CCSDS_OMM_VERS = 2.0
CREATION_DATE  = 
ORIGINATOR     = 

OBJECT_NAME    = STARLINK-35295
OBJECT_ID      = 2025-235N
CENTER_NAME    = EARTH
REF_FRAME      = TEME
TIME_SYSTEM    = UTC
MEAN_ELEMENT_THEORY = SGP/SGP4

EPOCH          = 2025-11-04T22:00:01.999584
MEAN_MOTION    = 15.68431182
ECCENTRICITY   = .00007676
INCLINATION    = 53.1589
RA_OF_ASC_NODE = 108.2317
ARG_OF_PERICENTER = 67.8947
MEAN_ANOMALY   = 170.8286

EPHEMERIS_TYPE = 0
CLASSIFICATION_TYPE = U
NORAD_CAT_ID   = 66070
ELEMENT_SET_NO = 999
REV_AT_EPOCH   = 379
BSTAR          = -.180561E-1
MEAN_MOTION_DOT = -.1847541E-1
MEAN_MOTION_DDOT = 0

CCSDS_OMM_VERS = 2.0
CREATION_DATE  = 
ORIGINATOR     = 

OBJECT_NAME    = STARLINK-35323
OBJECT_ID      = 2025-235P
CENTER_NAME    = EARTH
REF_FRAME      = TEME
TIME_SYSTEM    = UTC
MEAN_ELEMENT_THEORY = SGP/SGP4

EPOCH          = 2025-11-04T22:00:01.999584
MEAN_MOTION    = 15.68436995
ECCENTRICITY   = .00009326
INCLINATION    = 53.1593
RA_OF_ASC_NODE = 108.2346
ARG_OF_PERICENTER = 66.2830
MEAN_ANOMALY   = 170.5196

EPHEMERIS_TYPE = 0
CLASSIFICATION_TYPE = U
NORAD_CAT_ID   = 66071
ELEMENT_SET_NO = 999
REV_AT_EPOCH   = 379
BSTAR          = -.18114543E-1
MEAN_MOTION_DOT = -.1853364E-1
MEAN_MOTION_DDOT = 0

CCSDS_OMM_VERS = 2.0
CREATION_DATE  = 
ORIGINATOR     = 

OBJECT_NAME    = STARLINK-35299
OBJECT_ID      = 2025-235Q
CENTER_NAME    = EARTH
REF_FRAME      = TEME
TIME_SYSTEM    = UTC
MEAN_ELEMENT_THEORY = SGP/SGP4

EPOCH          = 2025-11-04T22:00:01.999584
MEAN_MOTION    = 15.68438480
ECCENTRICITY   = .00009537
INCLINATION    = 53.1590
RA_OF_ASC_NODE = 108.2265
ARG_OF_PERICENTER = 62.6254
MEAN_ANOMALY   = 178.0107

EPHEMERIS_TYPE = 0
CLASSIFICATION_TYPE = U
NORAD_CAT_ID   = 66072
ELEMENT_SET_NO = 999
REV_AT_EPOCH   = 379
BSTAR          = -.18144999E-1
MEAN_MOTION_DOT = -.1856252E-1
MEAN_MOTION_DDOT = 0

CCSDS_OMM_VERS = 2.0
CREATION_DATE  = 
ORIGINATOR     = 

OBJECT_NAME    = STARLINK-35274
OBJECT_ID      = 2025-235R
CENTER_NAME    = EARTH
REF_FRAME      = TEME
TIME_SYSTEM    = UTC
MEAN_ELEMENT_THEORY = SGP/SGP4

EPOCH          = 2025-11-04T22:00:01.999584
MEAN_MOTION    = 15.68438554
ECCENTRICITY   = .00008891
INCLINATION    = 53.1591
RA_OF_ASC_NODE = 108.2220
ARG_OF_PERICENTER = 65.0680
MEAN_ANOMALY   = 177.4846

EPHEMERIS_TYPE = 0
CLASSIFICATION_TYPE = U
NORAD_CAT_ID   = 66073
ELEMENT_SET_NO = 999
REV_AT_EPOCH   = 379
BSTAR          = -.1814422E-1
MEAN_MOTION_DOT = -.1856144E-1
MEAN_MOTION_DDOT = 0

CCSDS_OMM_VERS = 2.0
CREATION_DATE  = 
ORIGINATOR     = 

OBJECT_NAME    = STARLINK-35321
OBJECT_ID      = 2025-235S
CENTER_NAME    = EARTH
REF_FRAME      = TEME
TIME_SYSTEM    = UTC
MEAN_ELEMENT_THEORY = SGP/SGP4

EPOCH          = 2025-11-04T22:00:01.999584
MEAN_MOTION    = 15.68441715
ECCENTRICITY   = .0001056
INCLINATION    = 53.1593
RA_OF_ASC_NODE = 108.2178
ARG_OF_PERICENTER = 70.7724
MEAN_ANOMALY   = 173.6934

EPHEMERIS_TYPE = 0
CLASSIFICATION_TYPE = U
NORAD_CAT_ID   = 66074
ELEMENT_SET_NO = 999
REV_AT_EPOCH   = 379
BSTAR          = -.18168159E-1
MEAN_MOTION_DOT = -.1858649E-1
MEAN_MOTION_DDOT = 0

